TOMORROW-S2             
1 60485U 24149T   26068.75188364  .00008133  00000+0  27683-3 0  9990
2 60485  97.3857 150.0385 0001648 234.3331 125.7757 15.30674935 86869
STARLINK-32861          
1 62870U 25022S   26068.49126554  .00025520  00000+0  87061-3 0  9990
2 62870  53.1604 130.2592 0001216  86.9446 273.1694 15.30206511 61871
